CCSDS_OMM_VERS = 2.0
CREATION_DATE  = 
ORIGINATOR     = 

OBJECT_NAME    = HULIANWANG DIGUI-121
OBJECT_ID      = 2025-295C
CENTER_NAME    = EARTH
REF_FRAME      = TEME
TIME_SYSTEM    = UTC
MEAN_ELEMENT_THEORY = SGP/SGP4

EPOCH          = 2025-12-23T10:16:36.437664
MEAN_MOTION    = 14.25038967
ECCENTRICITY   = .00134061
INCLINATION    = 50.0019
RA_OF_ASC_NODE = 327.1083
ARG_OF_PERICENTER = 283.4183
MEAN_ANOMALY   = 76.5236

EPHEMERIS_TYPE = 0
CLASSIFICATION_TYPE = U
NORAD_CAT_ID   = 67061
ELEMENT_SET_NO = 999
REV_AT_EPOCH   = 164
BSTAR          = -.33550159E-4
MEAN_MOTION_DOT = -.239E-5
MEAN_MOTION_DDOT = 0

CCSDS_OMM_VERS = 2.0
CREATION_DATE  = 
ORIGINATOR     = 

OBJECT_NAME    = HULIANWANG DIGUI-122
OBJECT_ID      = 2025-295D
CENTER_NAME    = EARTH
REF_FRAME      = TEME
TIME_SYSTEM    = UTC
MEAN_ELEMENT_THEORY = SGP/SGP4

EPOCH          = 2025-12-24T16:31:18.471936
MEAN_MOTION    = 14.25758016
ECCENTRICITY   = .0013164
INCLINATION    = 50.0052
RA_OF_ASC_NODE = 321.7830
ARG_OF_PERICENTER = 295.5417
MEAN_ANOMALY   = 64.4135

EPHEMERIS_TYPE = 0
CLASSIFICATION_TYPE = U
NORAD_CAT_ID   = 67062
ELEMENT_SET_NO = 999
REV_AT_EPOCH   = 182
BSTAR          = .74037E-4
MEAN_MOTION_DOT = .17E-6
MEAN_MOTION_DDOT = 0

CCSDS_OMM_VERS = 2.0
CREATION_DATE  = 
ORIGINATOR     = 

OBJECT_NAME    = HULIANWANG DIGUI-123
OBJECT_ID      = 2025-295E
CENTER_NAME    = EARTH
REF_FRAME      = TEME
TIME_SYSTEM    = UTC
MEAN_ELEMENT_THEORY = SGP/SGP4

EPOCH          = 2025-12-23T18:37:38.191872
MEAN_MOTION    = 14.25890271
ECCENTRICITY   = .00124733
INCLINATION    = 50.0059
RA_OF_ASC_NODE = 325.6275
ARG_OF_PERICENTER = 291.5304
MEAN_ANOMALY   = 68.4280

EPHEMERIS_TYPE = 0
CLASSIFICATION_TYPE = U
NORAD_CAT_ID   = 67063
ELEMENT_SET_NO = 999
REV_AT_EPOCH   = 169
BSTAR          = .64661609E-4
MEAN_MOTION_DOT = -.5E-7
MEAN_MOTION_DDOT = 0

CCSDS_OMM_VERS = 2.0
CREATION_DATE  = 
ORIGINATOR     = 

OBJECT_NAME    = HULIANWANG DIGUI-124
OBJECT_ID      = 2025-295F
CENTER_NAME    = EARTH
REF_FRAME      = TEME
TIME_SYSTEM    = UTC
MEAN_ELEMENT_THEORY = SGP/SGP4

EPOCH          = 2025-12-22T05:36:45.096192
MEAN_MOTION    = 14.25948838
ECCENTRICITY   = .00121422
INCLINATION    = 50.0035
RA_OF_ASC_NODE = 332.1235
ARG_OF_PERICENTER = 280.5756
MEAN_ANOMALY   = 79.3790

EPHEMERIS_TYPE = 0
CLASSIFICATION_TYPE = U
NORAD_CAT_ID   = 67064
ELEMENT_SET_NO = 999
REV_AT_EPOCH   = 147
BSTAR          = -.21789546E-3
MEAN_MOTION_DOT = -.684E-5
MEAN_MOTION_DDOT = 0

CCSDS_OMM_VERS = 2.0
CREATION_DATE  = 
ORIGINATOR     = 

OBJECT_NAME    = HULIANWANG DIGUI-125
OBJECT_ID      = 2025-295G
CENTER_NAME    = EARTH
REF_FRAME      = TEME
TIME_SYSTEM    = UTC
MEAN_ELEMENT_THEORY = SGP/SGP4

EPOCH          = 2025-12-24T03:01:26.356800
MEAN_MOTION    = 14.25956035
ECCENTRICITY   = .00122653
INCLINATION    = 50.0009
RA_OF_ASC_NODE = 324.1276
ARG_OF_PERICENTER = 293.4537
MEAN_ANOMALY   = 66.5087

EPHEMERIS_TYPE = 0
CLASSIFICATION_TYPE = U
NORAD_CAT_ID   = 67065
ELEMENT_SET_NO = 999
REV_AT_EPOCH   = 174
BSTAR          = .65028559E-4
MEAN_MOTION_DOT = -.4E-7
MEAN_MOTION_DDOT = 0

CCSDS_OMM_VERS = 2.0
CREATION_DATE  = 
ORIGINATOR     = 

OBJECT_NAME    = HULIANWANG DIGUI-126
OBJECT_ID      = 2025-295H
CENTER_NAME    = EARTH
REF_FRAME      = TEME
TIME_SYSTEM    = UTC
MEAN_ELEMENT_THEORY = SGP/SGP4

EPOCH          = 2025-12-24T16:26:54.676320
MEAN_MOTION    = 14.26099416
ECCENTRICITY   = .0011421
INCLINATION    = 50.0012
RA_OF_ASC_NODE = 321.7514
ARG_OF_PERICENTER = 292.7089
MEAN_ANOMALY   = 67.2617

EPHEMERIS_TYPE = 0
CLASSIFICATION_TYPE = U
NORAD_CAT_ID   = 67066
ELEMENT_SET_NO = 999
REV_AT_EPOCH   = 182
BSTAR          = .80653E-4
MEAN_MOTION_DOT = .34E-6
MEAN_MOTION_DDOT = 0

CCSDS_OMM_VERS = 2.0
CREATION_DATE  = 
ORIGINATOR     = 

OBJECT_NAME    = HULIANWANG DIGUI-127
OBJECT_ID      = 2025-295J
CENTER_NAME    = EARTH
REF_FRAME      = TEME
TIME_SYSTEM    = UTC
MEAN_ELEMENT_THEORY = SGP/SGP4

EPOCH          = 2025-12-22T15:39:07.411968
MEAN_MOTION    = 14.26251195
ECCENTRICITY   = .00108509
INCLINATION    = 50.0053
RA_OF_ASC_NODE = 330.3407
ARG_OF_PERICENTER = 289.3117
MEAN_ANOMALY   = 70.6623

EPHEMERIS_TYPE = 0
CLASSIFICATION_TYPE = U
NORAD_CAT_ID   = 67067
ELEMENT_SET_NO = 999
REV_AT_EPOCH   = 153
BSTAR          = -.27534515E-3
MEAN_MOTION_DOT = -.825E-5
MEAN_MOTION_DDOT = 0

CCSDS_OMM_VERS = 2.0
CREATION_DATE  = 
ORIGINATOR     = 

OBJECT_NAME    = CZ-12 R/B
OBJECT_ID      = 2025-295K
CENTER_NAME    = EARTH
REF_FRAME      = TEME
TIME_SYSTEM    = UTC
MEAN_ELEMENT_THEORY = SGP/SGP4

EPOCH          = 2025-12-24T14:56:44.856960
MEAN_MOTION    = 14.41129797
ECCENTRICITY   = .0056881
INCLINATION    = 49.9942
RA_OF_ASC_NODE = 320.7503
ARG_OF_PERICENTER = 178.5136
MEAN_ANOMALY   = 181.5963

EPHEMERIS_TYPE = 0
CLASSIFICATION_TYPE = U
NORAD_CAT_ID   = 67068
ELEMENT_SET_NO = 999
REV_AT_EPOCH   = 182
BSTAR          = .26536E-4
MEAN_MOTION_DOT = -.81E-6
MEAN_MOTION_DDOT = 0

CCSDS_OMM_VERS = 2.0
CREATION_DATE  = 
ORIGINATOR     = 

OBJECT_NAME    = XIWANG-5 02
OBJECT_ID      = 2025-296A
CENTER_NAME    = EARTH
REF_FRAME      = TEME
TIME_SYSTEM    = UTC
MEAN_ELEMENT_THEORY = SGP/SGP4

EPOCH          = 2025-12-23T12:00:44.103744
MEAN_MOTION    = 15.16891516
ECCENTRICITY   = .00145566
INCLINATION    = 41.3523
RA_OF_ASC_NODE = 40.1941
ARG_OF_PERICENTER = 102.8792
MEAN_ANOMALY   = 257.3656

EPHEMERIS_TYPE = 0
CLASSIFICATION_TYPE = U
NORAD_CAT_ID   = 67069
ELEMENT_SET_NO = 999
REV_AT_EPOCH   = 159
BSTAR          = .60249038E-3
MEAN_MOTION_DOT = .11945E-3
MEAN_MOTION_DDOT = 0

CCSDS_OMM_VERS = 2.0
CREATION_DATE  = 
ORIGINATOR     = 

OBJECT_NAME    = DEAR-5
OBJECT_ID      = 2025-296B
CENTER_NAME    = EARTH
REF_FRAME      = TEME
TIME_SYSTEM    = UTC
MEAN_ELEMENT_THEORY = SGP/SGP4

EPOCH          = 2025-12-23T23:03:08.623008
MEAN_MOTION    = 15.16917161
ECCENTRICITY   = .0016166
INCLINATION    = 41.3551
RA_OF_ASC_NODE = 37.5614
ARG_OF_PERICENTER = 107.8349
MEAN_ANOMALY   = 252.4237

EPHEMERIS_TYPE = 0
CLASSIFICATION_TYPE = U
NORAD_CAT_ID   = 67070
ELEMENT_SET_NO = 999
REV_AT_EPOCH   = 165
BSTAR          = .2755E-3
MEAN_MOTION_DOT = .5352E-4
MEAN_MOTION_DDOT = 0

CCSDS_OMM_VERS = 2.0
CREATION_DATE  = 
ORIGINATOR     = 

OBJECT_NAME    = KZ-11 R/B
OBJECT_ID      = 2025-296C
CENTER_NAME    = EARTH
REF_FRAME      = TEME
TIME_SYSTEM    = UTC
MEAN_ELEMENT_THEORY = SGP/SGP4

EPOCH          = 2025-12-24T07:54:11.602080
MEAN_MOTION    = 15.73894654
ECCENTRICITY   = .0331507
INCLINATION    = 41.3001
RA_OF_ASC_NODE = 37.0775
ARG_OF_PERICENTER = 35.4688
MEAN_ANOMALY   = 326.7718

EPHEMERIS_TYPE = 0
CLASSIFICATION_TYPE = U
NORAD_CAT_ID   = 67071
ELEMENT_SET_NO = 999
REV_AT_EPOCH   = 169
BSTAR          = .38975E-3
MEAN_MOTION_DOT = .10609503E+0
MEAN_MOTION_DDOT = .77667E-5

CCSDS_OMM_VERS = 2.0
CREATION_DATE  = 
ORIGINATOR     = 

OBJECT_NAME    = ELECTRON R/B
OBJECT_ID      = 2025-297A
CENTER_NAME    = EARTH
REF_FRAME      = TEME
TIME_SYSTEM    = UTC
MEAN_ELEMENT_THEORY = SGP/SGP4

EPOCH          = 2025-12-24T06:44:33.518400
MEAN_MOTION    = 16.35808035
ECCENTRICITY   = .00508603
INCLINATION    = 97.4545
RA_OF_ASC_NODE = 146.8421
ARG_OF_PERICENTER = 206.0696
MEAN_ANOMALY   = 153.8040

EPHEMERIS_TYPE = 0
CLASSIFICATION_TYPE = U
NORAD_CAT_ID   = 67072
ELEMENT_SET_NO = 999
REV_AT_EPOCH   = 162
BSTAR          = .4607887E-3
MEAN_MOTION_DOT = .10667753E+0
MEAN_MOTION_DDOT = .2046897E-5

